; wire-arc deposition
; travel 8.0 mm/s, wire 2.5 m/min
; 96 beads, 6.82 m, ~18 min
G21 ; mm
G90 ; absolute
G28 ; home
G4 P20 ; interlayer cool
G0 X192.15 Y164.05 Z21.00 F3000
G0 X192.15 Y164.05 Z1.00 F3000
M3 S250 ; arc on, wire feed
G4 P0.4 ; establish the puddle
G1 X191.85 Y167.20 Z1.00 F480
G1 X190.83 Y170.18 Z1.00 F480
G1 X189.14 Y172.84 Z1.00 F480
G1 X186.87 Y175.04 Z1.00 F480
G1 X184.14 Y176.67 Z1.00 F480
G1 X181.10 Y177.63 Z1.00 F480
G1 X177.88 Y177.88 Z1.00 F480
G1 X122.12 Y177.88 Z1.00 F480
G1 X118.90 Y177.63 Z1.00 F480
G1 X115.86 Y176.67 Z1.00 F480
G1 X113.13 Y175.04 Z1.00 F480
G1 X110.86 Y172.84 Z1.00 F480
G1 X109.17 Y170.18 Z1.00 F480
G1 X108.15 Y167.20 Z1.00 F480
G1 X107.85 Y164.05 Z1.00 F480
G1 X107.85 Y135.95 Z1.00 F480
G1 X108.15 Y132.80 Z1.00 F480
G1 X109.17 Y129.82 Z1.00 F480
G1 X110.86 Y127.16 Z1.00 F480
G1 X113.13 Y124.96 Z1.00 F480
G1 X115.86 Y123.33 Z1.00 F480
G1 X118.90 Y122.37 Z1.00 F480
G1 X122.12 Y122.12 Z1.00 F480
G1 X177.88 Y122.12 Z1.00 F480
G1 X181.10 Y122.37 Z1.00 F480
G1 X184.14 Y123.33 Z1.00 F480
G1 X186.87 Y124.96 Z1.00 F480
G1 X189.14 Y127.16 Z1.00 F480
G1 X190.83 Y129.82 Z1.00 F480
G1 X191.85 Y132.80 Z1.00 F480
G1 X192.15 Y135.95 Z1.00 F480
G1 X192.15 Y164.05 Z1.00 F480
M5 ; arc off
G0 X116.84 Y127.19 Z21.00 F3000
G0 X116.84 Y127.19 Z1.00 F3000
M3 S250 ; arc on, wire feed
G4 P0.4 ; establish the puddle
G1 X183.16 Y127.19 Z1.00 F480
M5 ; arc off
G0 X186.87 Y131.39 Z21.00 F3000
G0 X186.87 Y131.39 Z1.00 F3000
M3 S250 ; arc on, wire feed
G4 P0.4 ; establish the puddle
G1 X113.13 Y131.39 Z1.00 F480
M5 ; arc off
G0 X111.95 Y135.59 Z21.00 F3000
G0 X111.95 Y135.59 Z1.00 F3000
M3 S250 ; arc on, wire feed
G4 P0.4 ; establish the puddle
G1 X188.05 Y135.59 Z1.00 F480
M5 ; arc off
G0 X188.17 Y139.79 Z21.00 F3000
G0 X188.17 Y139.79 Z1.00 F3000
M3 S250 ; arc on, wire feed
G4 P0.4 ; establish the puddle
G1 X111.83 Y139.79 Z1.00 F480
M5 ; arc off
G0 X111.83 Y143.99 Z21.00 F3000
G0 X111.83 Y143.99 Z1.00 F3000
M3 S250 ; arc on, wire feed
G4 P0.4 ; establish the puddle
G1 X188.17 Y143.99 Z1.00 F480
M5 ; arc off
G0 X188.17 Y148.19 Z21.00 F3000
G0 X188.17 Y148.19 Z1.00 F3000
M3 S250 ; arc on, wire feed
G4 P0.4 ; establish the puddle
G1 X111.83 Y148.19 Z1.00 F480
M5 ; arc off
G0 X111.83 Y152.39 Z21.00 F3000
G0 X111.83 Y152.39 Z1.00 F3000
M3 S250 ; arc on, wire feed
G4 P0.4 ; establish the puddle
G1 X188.17 Y152.39 Z1.00 F480
M5 ; arc off
G0 X188.17 Y156.59 Z21.00 F3000
G0 X188.17 Y156.59 Z1.00 F3000
M3 S250 ; arc on, wire feed
G4 P0.4 ; establish the puddle
G1 X111.83 Y156.59 Z1.00 F480
M5 ; arc off
G0 X111.83 Y160.79 Z21.00 F3000
G0 X111.83 Y160.79 Z1.00 F3000
M3 S250 ; arc on, wire feed
G4 P0.4 ; establish the puddle
G1 X188.17 Y160.79 Z1.00 F480
M5 ; arc off
G0 X188.01 Y164.99 Z21.00 F3000
G0 X188.01 Y164.99 Z1.00 F3000
M3 S250 ; arc on, wire feed
G4 P0.4 ; establish the puddle
G1 X111.99 Y164.99 Z1.00 F480
M5 ; arc off
G0 X113.50 Y169.19 Z21.00 F3000
G0 X113.50 Y169.19 Z1.00 F3000
M3 S250 ; arc on, wire feed
G4 P0.4 ; establish the puddle
G1 X186.50 Y169.19 Z1.00 F480
M5 ; arc off
G0 X182.10 Y173.39 Z21.00 F3000
G0 X182.10 Y173.39 Z1.00 F3000
M3 S250 ; arc on, wire feed
G4 P0.4 ; establish the puddle
G1 X117.90 Y173.39 Z1.00 F480
M5 ; arc off
G4 P20 ; interlayer cool
G0 X192.15 Y164.05 Z23.00 F3000
G0 X192.15 Y164.05 Z3.00 F3000
M3 S250 ; arc on, wire feed
G4 P0.4 ; establish the puddle
G1 X191.85 Y167.20 Z3.00 F480
G1 X190.83 Y170.18 Z3.00 F480
G1 X189.14 Y172.84 Z3.00 F480
G1 X186.87 Y175.04 Z3.00 F480
G1 X184.14 Y176.67 Z3.00 F480
G1 X181.10 Y177.63 Z3.00 F480
G1 X177.88 Y177.88 Z3.00 F480
G1 X122.12 Y177.88 Z3.00 F480
G1 X118.90 Y177.63 Z3.00 F480
G1 X115.86 Y176.67 Z3.00 F480
G1 X113.13 Y175.04 Z3.00 F480
G1 X110.86 Y172.84 Z3.00 F480
G1 X109.17 Y170.18 Z3.00 F480
G1 X108.15 Y167.20 Z3.00 F480
G1 X107.85 Y164.05 Z3.00 F480
G1 X107.85 Y135.95 Z3.00 F480
G1 X108.15 Y132.80 Z3.00 F480
G1 X109.17 Y129.82 Z3.00 F480
G1 X110.86 Y127.16 Z3.00 F480
G1 X113.13 Y124.96 Z3.00 F480
G1 X115.86 Y123.33 Z3.00 F480
G1 X118.90 Y122.37 Z3.00 F480
G1 X122.12 Y122.12 Z3.00 F480
G1 X177.88 Y122.12 Z3.00 F480
G1 X181.10 Y122.37 Z3.00 F480
G1 X184.14 Y123.33 Z3.00 F480
G1 X186.87 Y124.96 Z3.00 F480
G1 X189.14 Y127.16 Z3.00 F480
G1 X190.83 Y129.82 Z3.00 F480
G1 X191.85 Y132.80 Z3.00 F480
G1 X192.15 Y135.95 Z3.00 F480
G1 X192.15 Y164.05 Z3.00 F480
M5 ; arc off
G0 X186.07 Y130.15 Z23.00 F3000
G0 X186.07 Y130.15 Z3.00 F3000
M3 S250 ; arc on, wire feed
G4 P0.4 ; establish the puddle
G1 X186.07 Y169.85 Z3.00 F480
M5 ; arc off
G0 X181.87 Y173.52 Z23.00 F3000
G0 X181.87 Y173.52 Z3.00 F3000
M3 S250 ; arc on, wire feed
G4 P0.4 ; establish the puddle
G1 X181.87 Y126.48 Z3.00 F480
M5 ; arc off
G0 X177.67 Y125.15 Z23.00 F3000
G0 X177.67 Y125.15 Z3.00 F3000
M3 S250 ; arc on, wire feed
G4 P0.4 ; establish the puddle
G1 X177.67 Y174.85 Z3.00 F480
M5 ; arc off
G0 X173.47 Y174.91 Z23.00 F3000
G0 X173.47 Y174.91 Z3.00 F3000
M3 S250 ; arc on, wire feed
G4 P0.4 ; establish the puddle
G1 X173.47 Y125.09 Z3.00 F480
M5 ; arc off
G0 X169.27 Y125.09 Z23.00 F3000
G0 X169.27 Y125.09 Z3.00 F3000
M3 S250 ; arc on, wire feed
G4 P0.4 ; establish the puddle
G1 X169.27 Y174.91 Z3.00 F480
M5 ; arc off
G0 X165.07 Y174.91 Z23.00 F3000
G0 X165.07 Y174.91 Z3.00 F3000
M3 S250 ; arc on, wire feed
G4 P0.4 ; establish the puddle
G1 X165.07 Y125.09 Z3.00 F480
M5 ; arc off
G0 X160.87 Y125.09 Z23.00 F3000
G0 X160.87 Y125.09 Z3.00 F3000
M3 S250 ; arc on, wire feed
G4 P0.4 ; establish the puddle
G1 X160.87 Y174.91 Z3.00 F480
M5 ; arc off
G0 X156.67 Y174.91 Z23.00 F3000
G0 X156.67 Y174.91 Z3.00 F3000
M3 S250 ; arc on, wire feed
G4 P0.4 ; establish the puddle
G1 X156.67 Y125.09 Z3.00 F480
M5 ; arc off
G0 X152.47 Y125.09 Z23.00 F3000
G0 X152.47 Y125.09 Z3.00 F3000
M3 S250 ; arc on, wire feed
G4 P0.4 ; establish the puddle
G1 X152.47 Y174.91 Z3.00 F480
M5 ; arc off
G0 X148.27 Y174.91 Z23.00 F3000
G0 X148.27 Y174.91 Z3.00 F3000
M3 S250 ; arc on, wire feed
G4 P0.4 ; establish the puddle
G1 X148.27 Y125.09 Z3.00 F480
M5 ; arc off
G0 X144.07 Y125.09 Z23.00 F3000
G0 X144.07 Y125.09 Z3.00 F3000
M3 S250 ; arc on, wire feed
G4 P0.4 ; establish the puddle
G1 X144.07 Y174.91 Z3.00 F480
M5 ; arc off
G0 X139.87 Y174.91 Z23.00 F3000
G0 X139.87 Y174.91 Z3.00 F3000
M3 S250 ; arc on, wire feed
G4 P0.4 ; establish the puddle
G1 X139.87 Y125.09 Z3.00 F480
M5 ; arc off
G0 X135.67 Y125.09 Z23.00 F3000
G0 X135.67 Y125.09 Z3.00 F3000
M3 S250 ; arc on, wire feed
G4 P0.4 ; establish the puddle
G1 X135.67 Y174.91 Z3.00 F480
M5 ; arc off
G0 X131.47 Y174.91 Z23.00 F3000
G0 X131.47 Y174.91 Z3.00 F3000
M3 S250 ; arc on, wire feed
G4 P0.4 ; establish the puddle
G1 X131.47 Y125.09 Z3.00 F480
M5 ; arc off
G0 X127.27 Y125.09 Z23.00 F3000
G0 X127.27 Y125.09 Z3.00 F3000
M3 S250 ; arc on, wire feed
G4 P0.4 ; establish the puddle
G1 X127.27 Y174.91 Z3.00 F480
M5 ; arc off
G0 X123.07 Y174.86 Z23.00 F3000
G0 X123.07 Y174.86 Z3.00 F3000
M3 S250 ; arc on, wire feed
G4 P0.4 ; establish the puddle
G1 X123.07 Y125.14 Z3.00 F480
M5 ; arc off
G0 X118.87 Y126.08 Z23.00 F3000
G0 X118.87 Y126.08 Z3.00 F3000
M3 S250 ; arc on, wire feed
G4 P0.4 ; establish the puddle
G1 X118.87 Y173.92 Z3.00 F480
M5 ; arc off
G0 X114.67 Y170.89 Z23.00 F3000
G0 X114.67 Y170.89 Z3.00 F3000
M3 S250 ; arc on, wire feed
G4 P0.4 ; establish the puddle
G1 X114.67 Y129.11 Z3.00 F480
M5 ; arc off
G4 P20 ; interlayer cool
G0 X192.15 Y164.05 Z25.00 F3000
G0 X192.15 Y164.05 Z5.00 F3000
M3 S250 ; arc on, wire feed
G4 P0.4 ; establish the puddle
G1 X191.85 Y167.20 Z5.00 F480
G1 X190.83 Y170.18 Z5.00 F480
G1 X189.14 Y172.84 Z5.00 F480
G1 X186.87 Y175.04 Z5.00 F480
G1 X184.14 Y176.67 Z5.00 F480
G1 X181.10 Y177.63 Z5.00 F480
G1 X177.88 Y177.88 Z5.00 F480
G1 X122.12 Y177.88 Z5.00 F480
G1 X118.90 Y177.63 Z5.00 F480
G1 X115.86 Y176.67 Z5.00 F480
G1 X113.13 Y175.04 Z5.00 F480
G1 X110.86 Y172.84 Z5.00 F480
G1 X109.17 Y170.18 Z5.00 F480
G1 X108.15 Y167.20 Z5.00 F480
G1 X107.85 Y164.05 Z5.00 F480
G1 X107.85 Y135.95 Z5.00 F480
G1 X108.15 Y132.80 Z5.00 F480
G1 X109.17 Y129.82 Z5.00 F480
G1 X110.86 Y127.16 Z5.00 F480
G1 X113.13 Y124.96 Z5.00 F480
G1 X115.86 Y123.33 Z5.00 F480
G1 X118.90 Y122.37 Z5.00 F480
G1 X122.12 Y122.12 Z5.00 F480
G1 X177.88 Y122.12 Z5.00 F480
G1 X181.10 Y122.37 Z5.00 F480
G1 X184.14 Y123.33 Z5.00 F480
G1 X186.87 Y124.96 Z5.00 F480
G1 X189.14 Y127.16 Z5.00 F480
G1 X190.83 Y129.82 Z5.00 F480
G1 X191.85 Y132.80 Z5.00 F480
G1 X192.15 Y135.95 Z5.00 F480
G1 X192.15 Y164.05 Z5.00 F480
M5 ; arc off
G0 X183.16 Y172.81 Z25.00 F3000
G0 X183.16 Y172.81 Z5.00 F3000
M3 S250 ; arc on, wire feed
G4 P0.4 ; establish the puddle
G1 X116.84 Y172.81 Z5.00 F480
M5 ; arc off
G0 X113.13 Y168.61 Z25.00 F3000
G0 X113.13 Y168.61 Z5.00 F3000
M3 S250 ; arc on, wire feed
G4 P0.4 ; establish the puddle
G1 X186.87 Y168.61 Z5.00 F480
M5 ; arc off
G0 X188.05 Y164.41 Z25.00 F3000
G0 X188.05 Y164.41 Z5.00 F3000
M3 S250 ; arc on, wire feed
G4 P0.4 ; establish the puddle
G1 X111.95 Y164.41 Z5.00 F480
M5 ; arc off
G0 X111.83 Y160.21 Z25.00 F3000
G0 X111.83 Y160.21 Z5.00 F3000
M3 S250 ; arc on, wire feed
G4 P0.4 ; establish the puddle
G1 X188.17 Y160.21 Z5.00 F480
M5 ; arc off
G0 X188.17 Y156.01 Z25.00 F3000
G0 X188.17 Y156.01 Z5.00 F3000
M3 S250 ; arc on, wire feed
G4 P0.4 ; establish the puddle
G1 X111.83 Y156.01 Z5.00 F480
M5 ; arc off
G0 X111.83 Y151.81 Z25.00 F3000
G0 X111.83 Y151.81 Z5.00 F3000
M3 S250 ; arc on, wire feed
G4 P0.4 ; establish the puddle
G1 X188.17 Y151.81 Z5.00 F480
M5 ; arc off
G0 X188.17 Y147.61 Z25.00 F3000
G0 X188.17 Y147.61 Z5.00 F3000
M3 S250 ; arc on, wire feed
G4 P0.4 ; establish the puddle
G1 X111.83 Y147.61 Z5.00 F480
M5 ; arc off
G0 X111.83 Y143.41 Z25.00 F3000
G0 X111.83 Y143.41 Z5.00 F3000
M3 S250 ; arc on, wire feed
G4 P0.4 ; establish the puddle
G1 X188.17 Y143.41 Z5.00 F480
M5 ; arc off
G0 X188.17 Y139.21 Z25.00 F3000
G0 X188.17 Y139.21 Z5.00 F3000
M3 S250 ; arc on, wire feed
G4 P0.4 ; establish the puddle
G1 X111.83 Y139.21 Z5.00 F480
M5 ; arc off
G0 X111.99 Y135.01 Z25.00 F3000
G0 X111.99 Y135.01 Z5.00 F3000
M3 S250 ; arc on, wire feed
G4 P0.4 ; establish the puddle
G1 X188.01 Y135.01 Z5.00 F480
M5 ; arc off
G0 X186.50 Y130.81 Z25.00 F3000
G0 X186.50 Y130.81 Z5.00 F3000
M3 S250 ; arc on, wire feed
G4 P0.4 ; establish the puddle
G1 X113.50 Y130.81 Z5.00 F480
M5 ; arc off
G0 X117.90 Y126.61 Z25.00 F3000
G0 X117.90 Y126.61 Z5.00 F3000
M3 S250 ; arc on, wire feed
G4 P0.4 ; establish the puddle
G1 X182.10 Y126.61 Z5.00 F480
M5 ; arc off
G4 P20 ; interlayer cool
G0 X192.15 Y164.05 Z27.00 F3000
G0 X192.15 Y164.05 Z7.00 F3000
M3 S250 ; arc on, wire feed
G4 P0.4 ; establish the puddle
G1 X191.85 Y167.20 Z7.00 F480
G1 X190.83 Y170.18 Z7.00 F480
G1 X189.14 Y172.84 Z7.00 F480
G1 X186.87 Y175.04 Z7.00 F480
G1 X184.14 Y176.67 Z7.00 F480
G1 X181.10 Y177.63 Z7.00 F480
G1 X177.88 Y177.88 Z7.00 F480
G1 X122.12 Y177.88 Z7.00 F480
G1 X118.90 Y177.63 Z7.00 F480
G1 X115.86 Y176.67 Z7.00 F480
G1 X113.13 Y175.04 Z7.00 F480
G1 X110.86 Y172.84 Z7.00 F480
G1 X109.17 Y170.18 Z7.00 F480
G1 X108.15 Y167.20 Z7.00 F480
G1 X107.85 Y164.05 Z7.00 F480
G1 X107.85 Y135.95 Z7.00 F480
G1 X108.15 Y132.80 Z7.00 F480
G1 X109.17 Y129.82 Z7.00 F480
G1 X110.86 Y127.16 Z7.00 F480
G1 X113.13 Y124.96 Z7.00 F480
G1 X115.86 Y123.33 Z7.00 F480
G1 X118.90 Y122.37 Z7.00 F480
G1 X122.12 Y122.12 Z7.00 F480
G1 X177.88 Y122.12 Z7.00 F480
G1 X181.10 Y122.37 Z7.00 F480
G1 X184.14 Y123.33 Z7.00 F480
G1 X186.87 Y124.96 Z7.00 F480
G1 X189.14 Y127.16 Z7.00 F480
G1 X190.83 Y129.82 Z7.00 F480
G1 X191.85 Y132.80 Z7.00 F480
G1 X192.15 Y135.95 Z7.00 F480
G1 X192.15 Y164.05 Z7.00 F480
M5 ; arc off
G0 X113.93 Y169.85 Z27.00 F3000
G0 X113.93 Y169.85 Z7.00 F3000
M3 S250 ; arc on, wire feed
G4 P0.4 ; establish the puddle
G1 X113.93 Y130.15 Z7.00 F480
M5 ; arc off
G0 X118.13 Y126.48 Z27.00 F3000
G0 X118.13 Y126.48 Z7.00 F3000
M3 S250 ; arc on, wire feed
G4 P0.4 ; establish the puddle
G1 X118.13 Y173.52 Z7.00 F480
M5 ; arc off
G0 X122.33 Y174.85 Z27.00 F3000
G0 X122.33 Y174.85 Z7.00 F3000
M3 S250 ; arc on, wire feed
G4 P0.4 ; establish the puddle
G1 X122.33 Y125.15 Z7.00 F480
M5 ; arc off
G0 X126.53 Y125.09 Z27.00 F3000
G0 X126.53 Y125.09 Z7.00 F3000
M3 S250 ; arc on, wire feed
G4 P0.4 ; establish the puddle
G1 X126.53 Y174.91 Z7.00 F480
M5 ; arc off
G0 X130.73 Y174.91 Z27.00 F3000
G0 X130.73 Y174.91 Z7.00 F3000
M3 S250 ; arc on, wire feed
G4 P0.4 ; establish the puddle
G1 X130.73 Y125.09 Z7.00 F480
M5 ; arc off
G0 X134.93 Y125.09 Z27.00 F3000
G0 X134.93 Y125.09 Z7.00 F3000
M3 S250 ; arc on, wire feed
G4 P0.4 ; establish the puddle
G1 X134.93 Y174.91 Z7.00 F480
M5 ; arc off
G0 X139.13 Y174.91 Z27.00 F3000
G0 X139.13 Y174.91 Z7.00 F3000
M3 S250 ; arc on, wire feed
G4 P0.4 ; establish the puddle
G1 X139.13 Y125.09 Z7.00 F480
M5 ; arc off
G0 X143.33 Y125.09 Z27.00 F3000
G0 X143.33 Y125.09 Z7.00 F3000
M3 S250 ; arc on, wire feed
G4 P0.4 ; establish the puddle
G1 X143.33 Y174.91 Z7.00 F480
M5 ; arc off
G0 X147.53 Y174.91 Z27.00 F3000
G0 X147.53 Y174.91 Z7.00 F3000
M3 S250 ; arc on, wire feed
G4 P0.4 ; establish the puddle
G1 X147.53 Y125.09 Z7.00 F480
M5 ; arc off
G0 X151.73 Y125.09 Z27.00 F3000
G0 X151.73 Y125.09 Z7.00 F3000
M3 S250 ; arc on, wire feed
G4 P0.4 ; establish the puddle
G1 X151.73 Y174.91 Z7.00 F480
M5 ; arc off
G0 X155.93 Y174.91 Z27.00 F3000
G0 X155.93 Y174.91 Z7.00 F3000
M3 S250 ; arc on, wire feed
G4 P0.4 ; establish the puddle
G1 X155.93 Y125.09 Z7.00 F480
M5 ; arc off
G0 X160.13 Y125.09 Z27.00 F3000
G0 X160.13 Y125.09 Z7.00 F3000
M3 S250 ; arc on, wire feed
G4 P0.4 ; establish the puddle
G1 X160.13 Y174.91 Z7.00 F480
M5 ; arc off
G0 X164.33 Y174.91 Z27.00 F3000
G0 X164.33 Y174.91 Z7.00 F3000
M3 S250 ; arc on, wire feed
G4 P0.4 ; establish the puddle
G1 X164.33 Y125.09 Z7.00 F480
M5 ; arc off
G0 X168.53 Y125.09 Z27.00 F3000
G0 X168.53 Y125.09 Z7.00 F3000
M3 S250 ; arc on, wire feed
G4 P0.4 ; establish the puddle
G1 X168.53 Y174.91 Z7.00 F480
M5 ; arc off
G0 X172.73 Y174.91 Z27.00 F3000
G0 X172.73 Y174.91 Z7.00 F3000
M3 S250 ; arc on, wire feed
G4 P0.4 ; establish the puddle
G1 X172.73 Y125.09 Z7.00 F480
M5 ; arc off
G0 X176.93 Y125.14 Z27.00 F3000
G0 X176.93 Y125.14 Z7.00 F3000
M3 S250 ; arc on, wire feed
G4 P0.4 ; establish the puddle
G1 X176.93 Y174.86 Z7.00 F480
M5 ; arc off
G0 X181.13 Y173.92 Z27.00 F3000
G0 X181.13 Y173.92 Z7.00 F3000
M3 S250 ; arc on, wire feed
G4 P0.4 ; establish the puddle
G1 X181.13 Y126.08 Z7.00 F480
M5 ; arc off
G0 X185.33 Y129.11 Z27.00 F3000
G0 X185.33 Y129.11 Z7.00 F3000
M3 S250 ; arc on, wire feed
G4 P0.4 ; establish the puddle
G1 X185.33 Y170.89 Z7.00 F480
M5 ; arc off
G4 P20 ; interlayer cool
G0 X192.15 Y164.05 Z29.00 F3000
G0 X192.15 Y164.05 Z9.00 F3000
M3 S250 ; arc on, wire feed
G4 P0.4 ; establish the puddle
G1 X191.85 Y167.20 Z9.00 F480
G1 X190.83 Y170.18 Z9.00 F480
G1 X189.14 Y172.84 Z9.00 F480
G1 X186.87 Y175.04 Z9.00 F480
G1 X184.14 Y176.67 Z9.00 F480
G1 X181.10 Y177.63 Z9.00 F480
G1 X177.88 Y177.88 Z9.00 F480
G1 X122.12 Y177.88 Z9.00 F480
G1 X118.90 Y177.63 Z9.00 F480
G1 X115.86 Y176.67 Z9.00 F480
G1 X113.13 Y175.04 Z9.00 F480
G1 X110.86 Y172.84 Z9.00 F480
G1 X109.17 Y170.18 Z9.00 F480
G1 X108.15 Y167.20 Z9.00 F480
G1 X107.85 Y164.05 Z9.00 F480
G1 X107.85 Y135.95 Z9.00 F480
G1 X108.15 Y132.80 Z9.00 F480
G1 X109.17 Y129.82 Z9.00 F480
G1 X110.86 Y127.16 Z9.00 F480
G1 X113.13 Y124.96 Z9.00 F480
G1 X115.86 Y123.33 Z9.00 F480
G1 X118.90 Y122.37 Z9.00 F480
G1 X122.12 Y122.12 Z9.00 F480
G1 X177.88 Y122.12 Z9.00 F480
G1 X181.10 Y122.37 Z9.00 F480
G1 X184.14 Y123.33 Z9.00 F480
G1 X186.87 Y124.96 Z9.00 F480
G1 X189.14 Y127.16 Z9.00 F480
G1 X190.83 Y129.82 Z9.00 F480
G1 X191.85 Y132.80 Z9.00 F480
G1 X192.15 Y135.95 Z9.00 F480
G1 X192.15 Y164.05 Z9.00 F480
M5 ; arc off
G0 X116.84 Y127.19 Z29.00 F3000
G0 X116.84 Y127.19 Z9.00 F3000
M3 S250 ; arc on, wire feed
G4 P0.4 ; establish the puddle
G1 X183.16 Y127.19 Z9.00 F480
M5 ; arc off
G0 X186.87 Y131.39 Z29.00 F3000
G0 X186.87 Y131.39 Z9.00 F3000
M3 S250 ; arc on, wire feed
G4 P0.4 ; establish the puddle
G1 X113.13 Y131.39 Z9.00 F480
M5 ; arc off
G0 X111.95 Y135.59 Z29.00 F3000
G0 X111.95 Y135.59 Z9.00 F3000
M3 S250 ; arc on, wire feed
G4 P0.4 ; establish the puddle
G1 X188.05 Y135.59 Z9.00 F480
M5 ; arc off
G0 X188.17 Y139.79 Z29.00 F3000
G0 X188.17 Y139.79 Z9.00 F3000
M3 S250 ; arc on, wire feed
G4 P0.4 ; establish the puddle
G1 X111.83 Y139.79 Z9.00 F480
M5 ; arc off
G0 X111.83 Y143.99 Z29.00 F3000
G0 X111.83 Y143.99 Z9.00 F3000
M3 S250 ; arc on, wire feed
G4 P0.4 ; establish the puddle
G1 X188.17 Y143.99 Z9.00 F480
M5 ; arc off
G0 X188.17 Y148.19 Z29.00 F3000
G0 X188.17 Y148.19 Z9.00 F3000
M3 S250 ; arc on, wire feed
G4 P0.4 ; establish the puddle
G1 X111.83 Y148.19 Z9.00 F480
M5 ; arc off
G0 X111.83 Y152.39 Z29.00 F3000
G0 X111.83 Y152.39 Z9.00 F3000
M3 S250 ; arc on, wire feed
G4 P0.4 ; establish the puddle
G1 X188.17 Y152.39 Z9.00 F480
M5 ; arc off
G0 X188.17 Y156.59 Z29.00 F3000
G0 X188.17 Y156.59 Z9.00 F3000
M3 S250 ; arc on, wire feed
G4 P0.4 ; establish the puddle
G1 X111.83 Y156.59 Z9.00 F480
M5 ; arc off
G0 X111.83 Y160.79 Z29.00 F3000
G0 X111.83 Y160.79 Z9.00 F3000
M3 S250 ; arc on, wire feed
G4 P0.4 ; establish the puddle
G1 X188.17 Y160.79 Z9.00 F480
M5 ; arc off
G0 X188.01 Y164.99 Z29.00 F3000
G0 X188.01 Y164.99 Z9.00 F3000
M3 S250 ; arc on, wire feed
G4 P0.4 ; establish the puddle
G1 X111.99 Y164.99 Z9.00 F480
M5 ; arc off
G0 X113.50 Y169.19 Z29.00 F3000
G0 X113.50 Y169.19 Z9.00 F3000
M3 S250 ; arc on, wire feed
G4 P0.4 ; establish the puddle
G1 X186.50 Y169.19 Z9.00 F480
M5 ; arc off
G0 X182.10 Y173.39 Z29.00 F3000
G0 X182.10 Y173.39 Z9.00 F3000
M3 S250 ; arc on, wire feed
G4 P0.4 ; establish the puddle
G1 X117.90 Y173.39 Z9.00 F480
M5 ; arc off
G4 P20 ; interlayer cool
G0 X192.15 Y164.05 Z31.00 F3000
G0 X192.15 Y164.05 Z11.00 F3000
M3 S250 ; arc on, wire feed
G4 P0.4 ; establish the puddle
G1 X191.85 Y167.20 Z11.00 F480
G1 X190.83 Y170.18 Z11.00 F480
G1 X189.14 Y172.84 Z11.00 F480
G1 X186.87 Y175.04 Z11.00 F480
G1 X184.14 Y176.67 Z11.00 F480
G1 X181.10 Y177.63 Z11.00 F480
G1 X177.88 Y177.88 Z11.00 F480
G1 X122.12 Y177.88 Z11.00 F480
G1 X118.90 Y177.63 Z11.00 F480
G1 X115.86 Y176.67 Z11.00 F480
G1 X113.13 Y175.04 Z11.00 F480
G1 X110.86 Y172.84 Z11.00 F480
G1 X109.17 Y170.18 Z11.00 F480
G1 X108.15 Y167.20 Z11.00 F480
G1 X107.85 Y164.05 Z11.00 F480
G1 X107.85 Y135.95 Z11.00 F480
G1 X108.15 Y132.80 Z11.00 F480
G1 X109.17 Y129.82 Z11.00 F480
G1 X110.86 Y127.16 Z11.00 F480
G1 X113.13 Y124.96 Z11.00 F480
G1 X115.86 Y123.33 Z11.00 F480
G1 X118.90 Y122.37 Z11.00 F480
G1 X122.12 Y122.12 Z11.00 F480
G1 X177.88 Y122.12 Z11.00 F480
G1 X181.10 Y122.37 Z11.00 F480
G1 X184.14 Y123.33 Z11.00 F480
G1 X186.87 Y124.96 Z11.00 F480
G1 X189.14 Y127.16 Z11.00 F480
G1 X190.83 Y129.82 Z11.00 F480
G1 X191.85 Y132.80 Z11.00 F480
G1 X192.15 Y135.95 Z11.00 F480
G1 X192.15 Y164.05 Z11.00 F480
M5 ; arc off
G0 X186.07 Y130.15 Z31.00 F3000
G0 X186.07 Y130.15 Z11.00 F3000
M3 S250 ; arc on, wire feed
G4 P0.4 ; establish the puddle
G1 X186.07 Y169.85 Z11.00 F480
M5 ; arc off
G0 X181.87 Y173.52 Z31.00 F3000
G0 X181.87 Y173.52 Z11.00 F3000
M3 S250 ; arc on, wire feed
G4 P0.4 ; establish the puddle
G1 X181.87 Y126.48 Z11.00 F480
M5 ; arc off
G0 X177.67 Y125.15 Z31.00 F3000
G0 X177.67 Y125.15 Z11.00 F3000
M3 S250 ; arc on, wire feed
G4 P0.4 ; establish the puddle
G1 X177.67 Y174.85 Z11.00 F480
M5 ; arc off
G0 X173.47 Y174.91 Z31.00 F3000
G0 X173.47 Y174.91 Z11.00 F3000
M3 S250 ; arc on, wire feed
G4 P0.4 ; establish the puddle
G1 X173.47 Y125.09 Z11.00 F480
M5 ; arc off
G0 X169.27 Y125.09 Z31.00 F3000
G0 X169.27 Y125.09 Z11.00 F3000
M3 S250 ; arc on, wire feed
G4 P0.4 ; establish the puddle
G1 X169.27 Y174.91 Z11.00 F480
M5 ; arc off
G0 X165.07 Y174.91 Z31.00 F3000
G0 X165.07 Y174.91 Z11.00 F3000
M3 S250 ; arc on, wire feed
G4 P0.4 ; establish the puddle
G1 X165.07 Y125.09 Z11.00 F480
M5 ; arc off
G0 X160.87 Y125.09 Z31.00 F3000
G0 X160.87 Y125.09 Z11.00 F3000
M3 S250 ; arc on, wire feed
G4 P0.4 ; establish the puddle
G1 X160.87 Y174.91 Z11.00 F480
M5 ; arc off
G0 X156.67 Y174.91 Z31.00 F3000
G0 X156.67 Y174.91 Z11.00 F3000
M3 S250 ; arc on, wire feed
G4 P0.4 ; establish the puddle
G1 X156.67 Y125.09 Z11.00 F480
M5 ; arc off
G0 X152.47 Y125.09 Z31.00 F3000
G0 X152.47 Y125.09 Z11.00 F3000
M3 S250 ; arc on, wire feed
G4 P0.4 ; establish the puddle
G1 X152.47 Y174.91 Z11.00 F480
M5 ; arc off
G0 X148.27 Y174.91 Z31.00 F3000
G0 X148.27 Y174.91 Z11.00 F3000
M3 S250 ; arc on, wire feed
G4 P0.4 ; establish the puddle
G1 X148.27 Y125.09 Z11.00 F480
M5 ; arc off
G0 X144.07 Y125.09 Z31.00 F3000
G0 X144.07 Y125.09 Z11.00 F3000
M3 S250 ; arc on, wire feed
G4 P0.4 ; establish the puddle
G1 X144.07 Y174.91 Z11.00 F480
M5 ; arc off
G0 X139.87 Y174.91 Z31.00 F3000
G0 X139.87 Y174.91 Z11.00 F3000
M3 S250 ; arc on, wire feed
G4 P0.4 ; establish the puddle
G1 X139.87 Y125.09 Z11.00 F480
M5 ; arc off
G0 X135.67 Y125.09 Z31.00 F3000
G0 X135.67 Y125.09 Z11.00 F3000
M3 S250 ; arc on, wire feed
G4 P0.4 ; establish the puddle
G1 X135.67 Y174.91 Z11.00 F480
M5 ; arc off
G0 X131.47 Y174.91 Z31.00 F3000
G0 X131.47 Y174.91 Z11.00 F3000
M3 S250 ; arc on, wire feed
G4 P0.4 ; establish the puddle
G1 X131.47 Y125.09 Z11.00 F480
M5 ; arc off
G0 X127.27 Y125.09 Z31.00 F3000
G0 X127.27 Y125.09 Z11.00 F3000
M3 S250 ; arc on, wire feed
G4 P0.4 ; establish the puddle
G1 X127.27 Y174.91 Z11.00 F480
M5 ; arc off
G0 X123.07 Y174.86 Z31.00 F3000
G0 X123.07 Y174.86 Z11.00 F3000
M3 S250 ; arc on, wire feed
G4 P0.4 ; establish the puddle
G1 X123.07 Y125.14 Z11.00 F480
M5 ; arc off
G0 X118.87 Y126.08 Z31.00 F3000
G0 X118.87 Y126.08 Z11.00 F3000
M3 S250 ; arc on, wire feed
G4 P0.4 ; establish the puddle
G1 X118.87 Y173.92 Z11.00 F480
M5 ; arc off
G0 X114.67 Y170.89 Z31.00 F3000
G0 X114.67 Y170.89 Z11.00 F3000
M3 S250 ; arc on, wire feed
G4 P0.4 ; establish the puddle
G1 X114.67 Y129.11 Z11.00 F480
M5 ; arc off
M5 ; arc off
G0 Z50.00 ; clear
M2 ; end
